{
  "norad_id": 46352,
  "name": "STARLINK-1653",
  "history": [
    {
      "epoch": "2026-03-28T22:00:01.999584Z",
      "apogee_km": 383.58006656363614,
      "perigee_km": 369.95434399691385,
      "latitude_deg": -15.695677451618625,
      "longitude_deg": 60.09142295751668,
      "height_km": 374.4573897823936,
      "semi_major_axis_km": 6754.904205280275,
      "eccentricity": 0.00100858,
      "inclination_deg": 53.0417,
      "raan_deg": 228.5669,
      "arg_perigee_deg": 324.1212,
      "mean_anomaly_deg": 16.2715,
      "mean_motion_rev_day": 15.63773936
    },
    {
      "epoch": "2026-03-29T04:13:10.263072Z",
      "apogee_km": 383.2871004210683,
      "perigee_km": 369.7723632240386,
      "latitude_deg": 6.7539076570771875e-06,
      "longitude_deg": -22.58202802627133,
      "height_km": 371.8839266114887,
      "semi_major_axis_km": 6754.666731822554,
      "eccentricity": 0.0010004,
      "inclination_deg": 53.042,
      "raan_deg": 227.2964,
      "arg_perigee_deg": 325.2244,
      "mean_anomaly_deg": 34.8115,
      "mean_motion_rev_day": 15.63856403
    },
    {
      "epoch": "2026-03-30T04:45:26.510400Z",
      "apogee_km": 382.5761548792534,
      "perigee_km": 368.6137595801556,
      "latitude_deg": -3.6586222586682814e-05,
      "longitude_deg": -36.66819055179433,
      "height_km": 370.5235836173828,
      "semi_major_axis_km": 6753.731957229705,
      "eccentricity": 0.00103368,
      "inclination_deg": 53.0418,
      "raan_deg": 222.2857,
      "arg_perigee_deg": 328.8714,
      "mean_anomaly_deg": 31.1686,
      "mean_motion_rev_day": 15.64181091
    },
    {
      "epoch": "2026-03-30T14:00:03.000384Z",
      "apogee_km": 382.1811126715411,
      "perigee_km": 368.0674718967957,
      "latitude_deg": 8.155137229985547,
      "longitude_deg": -171.43319686662153,
      "height_km": 369.92811293013284,
      "semi_major_axis_km": 6753.261292284168,
      "eccentricity": 0.00104495,
      "inclination_deg": 53.0416,
      "raan_deg": 220.3973,
      "arg_perigee_deg": 330.2044,
      "mean_anomaly_deg": 39.981,
      "mean_motion_rev_day": 15.64344616
    },
    {
      "epoch": "2026-03-30T22:00:00.999936Z",
      "apogee_km": 381.9355801061656,
      "perigee_km": 367.6266868148132,
      "latitude_deg": 53.17054637806496,
      "longitude_deg": 147.99611539544796,
      "height_km": 384.5686955097057,
      "semi_major_axis_km": 6752.918133460489,
      "eccentricity": 0.00105946,
      "inclination_deg": 53.0416,
      "raan_deg": 218.7629,
      "arg_perigee_deg": 331.2223,
      "mean_anomaly_deg": 117.1912,
      "mean_motion_rev_day": 15.64463859
    },
    {
      "epoch": "2026-03-31T20:00:01.999008Z",
      "apogee_km": 381.55696287683986,
      "perigee_km": 366.923211253752,
      "latitude_deg": -27.03215628218765,
      "longitude_deg": -72.5039875487217,
      "height_km": 385.9453616602585,
      "semi_major_axis_km": 6752.377087065295,
      "eccentricity": 0.0010836,
      "inclination_deg": 53.0419,
      "raan_deg": 214.2669,
      "arg_perigee_deg": 334.8101,
      "mean_anomaly_deg": 239.6855,
      "mean_motion_rev_day": 15.64651896
    },
    {
      "epoch": "2026-04-01T20:00:01.999008Z",
      "apogee_km": 381.3232559447697,
      "perigee_km": 366.25970350650095,
      "latitude_deg": 53.18838716141651,
      "longitude_deg": 170.68753223117318,
      "height_km": 383.15934259214805,
      "semi_major_axis_km": 6751.928479725635,
      "eccentricity": 0.0011155,
      "inclination_deg": 53.0438,
      "raan_deg": 209.3604,
      "arg_perigee_deg": 338.6107,
      "mean_anomaly_deg": 112.1876,
      "mean_motion_rev_day": 15.64807835
    },
    {
      "epoch": "2026-04-02T20:00:01.999008Z",
      "apogee_km": 380.8474808926003,
      "perigee_km": 365.43431345335466,
      "latitude_deg": -25.39888211576953,
      "longitude_deg": 52.459602656443174,
      "height_km": 373.06561917053074,
      "semi_major_axis_km": 6751.277897172978,
      "eccentricity": 0.0011415,
      "inclination_deg": 53.0423,
      "raan_deg": 204.4527,
      "arg_perigee_deg": 341.6508,
      "mean_anomaly_deg": 346.1854,
      "mean_motion_rev_day": 15.65034028
    },
    {
      "epoch": "2026-04-03T00:00:02.999808Z",
      "apogee_km": 380.42462814269584,
      "perigee_km": 365.18950263257375,
      "latitude_deg": -6.056980062873756,
      "longitude_deg": -163.16624939733993,
      "height_km": 381.5833508413962,
      "semi_major_axis_km": 6750.9440653876345,
      "eccentricity": 0.00112837,
      "inclination_deg": 53.0424,
      "raan_deg": 203.6334,
      "arg_perigee_deg": 342.2457,
      "mean_anomaly_deg": 205.25,
      "mean_motion_rev_day": 15.65150115
    },
    {
      "epoch": "2026-04-03T17:35:32.972928Z",
      "apogee_km": 380.0936275380127,
      "perigee_km": 364.79276246801874,
      "latitude_deg": -2.9171277754779062e-05,
      "longitude_deg": 104.08419210010302,
      "height_km": 365.96385647118063,
      "semi_major_axis_km": 6750.580195003015,
      "eccentricity": 0.0011333,
      "inclination_deg": 53.042,
      "raan_deg": 200.0347,
      "arg_perigee_deg": 344.8031,
      "mean_anomaly_deg": 15.2641,
      "mean_motion_rev_day": 15.65276664
    },
    {
      "epoch": "2026-04-04T05:51:03.642624Z",
      "apogee_km": 379.8415087036319,
      "perigee_km": 364.2932229714488,
      "latitude_deg": -5.720538032343384e-05,
      "longitude_deg": -82.80445902780342,
      "height_km": 365.40431191671865,
      "semi_major_axis_km": 6750.2043658375405,
      "eccentricity": 0.00115169,
      "inclination_deg": 53.0418,
      "raan_deg": 197.5273,
      "arg_perigee_deg": 346.7242,
      "mean_anomaly_deg": 13.3467,
      "mean_motion_rev_day": 15.6540739
    },
    {
      "epoch": "2026-04-05T14:01:31.685664Z",
      "apogee_km": 379.22075891460554,
      "perigee_km": 363.39182951214934,
      "latitude_deg": -2.7005777748432925e-06,
      "longitude_deg": 146.6713760147038,
      "height_km": 364.38870083396444,
      "semi_major_axis_km": 6749.443294213377,
      "eccentricity": 0.00117261,
      "inclination_deg": 53.0416,
      "raan_deg": 190.9413,
      "arg_perigee_deg": 351.1507,
      "mean_anomaly_deg": 8.9299,
      "mean_motion_rev_day": 15.65672172
    },
    {
      "epoch": "2026-04-05T18:37:17.061024Z",
      "apogee_km": 379.12683977706183,
      "perigee_km": 363.2739960498657,
      "latitude_deg": 6.427685330719567e-05,
      "longitude_deg": 76.60271333346806,
      "height_km": 364.2546826821185,
      "semi_major_axis_km": 6749.3374179134635,
      "eccentricity": 0.0011744,
      "inclination_deg": 53.0416,
      "raan_deg": 190.0004,
      "arg_perigee_deg": 351.9466,
      "mean_anomaly_deg": 8.1359,
      "mean_motion_rev_day": 15.65709013
    },
    {
      "epoch": "2026-04-06T05:20:41.548704Z",
      "apogee_km": 379.0073610291629,
      "perigee_km": 362.9761554896686,
      "latitude_deg": 3.592068632540243e-05,
      "longitude_deg": -86.88473805082832,
      "height_km": 363.9306313495832,
      "semi_major_axis_km": 6749.128758259415,
      "eccentricity": 0.00118765,
      "inclination_deg": 53.0412,
      "raan_deg": 187.8054,
      "arg_perigee_deg": 353.4538,
      "mean_anomaly_deg": 6.632,
      "mean_motion_rev_day": 15.65781623
    },
    {
      "epoch": "2026-04-07T15:02:37.914144Z",
      "apogee_km": 378.4342873727828,
      "perigee_km": 362.22878496876456,
      "latitude_deg": 2.5307852020851746e-05,
      "longitude_deg": 119.34442588346447,
      "height_km": 363.1343800211306,
      "semi_major_axis_km": 6748.468536170773,
      "eccentricity": 0.00120068,
      "inclination_deg": 53.0411,
      "raan_deg": 180.9034,
      "arg_perigee_deg": 358.1262,
      "mean_anomaly_deg": 1.9706,
      "mean_motion_rev_day": 15.66011406
    },
    {
      "epoch": "2026-04-07T16:34:31.904256Z",
      "apogee_km": 378.4156153235008,
      "perigee_km": 362.1937112532878,
      "latitude_deg": -2.6010849016481312e-05,
      "longitude_deg": 95.99282529731259,
      "height_km": 363.0980619232637,
      "semi_major_axis_km": 6748.441663288394,
      "eccentricity": 0.0012019,
      "inclination_deg": 53.0411,
      "raan_deg": 180.5897,
      "arg_perigee_deg": 358.4045,
      "mean_anomaly_deg": 1.6929,
      "mean_motion_rev_day": 15.6602076
    },
    {
      "epoch": "2026-04-08T14:01:03.896832Z",
      "apogee_km": 378.12573107016215,
      "perigee_km": 361.72766635973676,
      "latitude_deg": 3.921949324935401e-05,
      "longitude_deg": 129.086468301777,
      "height_km": 362.63004183414546,
      "semi_major_axis_km": 6748.063698714949,
      "eccentricity": 0.00121502,
      "inclination_deg": 53.0406,
      "raan_deg": 176.1972,
      "arg_perigee_deg": 1.2296,
      "mean_anomaly_deg": 358.8747,
      "mean_motion_rev_day": 15.66152333
    },
    {
      "epoch": "2026-04-09T16:03:08.525952Z",
      "apogee_km": 377.7575636452357,
      "perigee_km": 361.200263716245,
      "latitude_deg": -5.0907938471984625e-05,
      "longitude_deg": 92.16370581901622,
      "height_km": 362.12812046543536,
      "semi_major_axis_km": 6747.61591368074,
      "eccentricity": 0.0012269,
      "inclination_deg": 53.0408,
      "raan_deg": 170.863,
      "arg_perigee_deg": 4.7335,
      "mean_anomaly_deg": 355.3793,
      "mean_motion_rev_day": 15.66308235
    },
    {
      "epoch": "2026-04-10T11:57:33.907104Z",
      "apogee_km": 377.50357395419906,
      "perigee_km": 360.7501178248567,
      "latitude_deg": 2.7119885853556595e-05,
      "longitude_deg": 148.66085374254249,
      "height_km": 361.7178523405789,
      "semi_major_axis_km": 6747.263845889528,
      "eccentricity": 0.0012415,
      "inclination_deg": 53.0406,
      "raan_deg": 166.7834,
      "arg_perigee_deg": 7.3531,
      "mean_anomaly_deg": 352.7664,
      "mean_motion_rev_day": 15.6643083
    },
    {
      "epoch": "2026-04-11T15:31:14.138688Z",
      "apogee_km": 377.09285478189486,
      "perigee_km": 360.26494656243904,
      "latitude_deg": -2.216478132364221e-05,
      "longitude_deg": 88.46188580860817,
      "height_km": 361.32304706101974,
      "semi_major_axis_km": 6746.815900672166,
      "eccentricity": 0.0012471,
      "inclination_deg": 53.0409,
      "raan_deg": 161.134,
      "arg_perigee_deg": 11.2047,
      "mean_anomaly_deg": 348.9243,
      "mean_motion_rev_day": 15.66586834
    }
  ]
}